OBJECT_NAME,OBJECT_ID,EPOCH,MEAN_MOTION,ECCENTRICITY,INCLINATION,RA_OF_ASC_NODE,ARG_OF_PERICENTER,MEAN_ANOMALY,EPHEMERIS_TYPE,CLASSIFICATION_TYPE,NORAD_CAT_ID,ELEMENT_SET_NO,REV_AT_EPOCH,BSTAR,MEAN_MOTION_DOT,MEAN_MOTION_DDOT
HST,1990-037B,2026-07-12T12:02:47.954688,15.31043109,.00022697,28.4726,267.5224,77.7190,282.3660,0,U,20580,999,79245,.11416285E-3,.3754E-4,0
POLAR,1996-013A,2026-07-12T10:54:54.440928,1.29846074,.64957953,79.8873,226.7522,208.2089,91.5098,0,U,23802,999,14518,0,.231E-5,0
SWAS,1998-071A,2026-07-12T20:33:01.391040,15.09738682,.0008099,69.8937,161.3162,233.0826,126.9597,0,U,25560,999,50114,.10956E-3,.1667E-4,0
CXO,1999-040B,2026-07-14T19:45:30.683520,0.37803281,.77946086,56.5906,115.8556,310.0752,0.4008,0,U,25867,999,1742,0,.664E-5,0
XMM-NEWTON,1999-066A,2026-07-12T06:46:16.393152,0.50124873,.46682181,64.3559,282.6652,64.4827,0.1151,0,U,25989,999,2313,0,.88E-6,0
TERRA,1999-068A,2026-07-12T20:00:12.645216,14.61122648,.0003317,97.9443,242.3611,127.4066,284.6397,0,U,25994,999,41335,.52367E-4,.213E-5,0
CLUSTER II-FM7 (SAMBA),2000-041A,2026-07-11T16:19:30.897408,0.44896530,.90823116,149.8437,55.3938,272.8334,359.6328,0,U,26410,999,2042,0,.12833E-3,0
CLUSTER II-FM8 (TANGO),2000-045B,2026-07-09T22:48:09.605952,0.44421537,.90851235,150.0571,56.2797,273.5523,2.2662,0,U,26464,999,2041,0,.11224E-3,0
ODIN,2001-007A,2026-07-12T15:51:49.688928,15.88033839,.0004667,97.3743,236.4394,145.8846,214.2726,0,U,26702,999,39342,.10674E-2,.297616E-2,0
TIMED,2001-055B,2026-07-12T10:21:34.411392,14.95341094,.00021503,74.0664,184.1868,303.7933,56.3046,0,U,26998,999,33459,.59647466E-4,.618E-5,0
CORIOLIS,2003-001A,2026-07-12T15:14:25.113696,14.19951354,.0014807,98.7133,200.1316,136.0642,224.1714,0,U,27640,999,21783,.46388E-4,.55E-6,0
SORCE,2003-004A,2026-07-12T18:34:48.324288,15.03835204,.0018682,39.9903,115.6776,238.2485,121.6489,0,U,27651,999,27575,.12075E-3,.1543E-4,0
MOST,2003-031D,2026-07-12T13:17:52.944000,14.21327361,.000992,98.7052,200.9262,172.5664,187.5662,0,U,27843,999,19431,.3106E-4,.24E-6,0
SCISAT 1,2003-036A,2026-07-12T19:39:32.302368,14.81477451,.0007489,73.9302,120.4158,189.0096,171.0948,0,U,27858,999,23524,.45603E-4,.321E-5,0
SWIFT,2004-047A,2026-07-12T20:41:59.068608,15.70976588,.0001758,20.5531,346.4713,356.8973,3.1462,0,U,28485,999,19090,.37646E-3,.5062E-3,0
HINODE (SOLAR-B),2006-041A,2026-07-12T14:21:32.342400,14.68656280,.0016823,98.0549,209.3763,202.9046,157.1411,0,U,29479,999,5860,.64077E-4,.324E-5,0
SHIJIAN-6 02A (SJ-6 02A),2006-046A,2026-07-12T19:33:38.071008,15.17225591,.0004506,97.6352,235.0763,68.8923,291.2791,0,U,29505,999,7615,.10822E-3,.2083E-4,0
SHIJIAN-6 02B (SJ-6 02B),2006-046B,2026-07-12T20:55:07.086720,15.01434697,.0013672,97.7155,222.7712,344.3569,15.7230,0,U,29506,999,7459,.44106E-4,.509E-5,0
FGRST (GLAST),2008-029A,2026-07-12T19:54:36.073152,15.24068455,.0007736,25.5828,26.4164,270.0308,89.9344,0,U,33053,999,99975,.75297E-4,.2218E-4,0
SDO,2010-005A,2026-07-11T05:56:48.706944,1.00277272,.00020204,34.6998,85.9778,56.2745,133.8056,0,U,36395,999,6030,0,-.102E-5,0
CRYOSAT 2,2010-013A,2026-07-12T20:35:01.478400,14.51897879,.0002353,92.0358,283.5423,98.3807,261.7667,0,U,36508,999,86180,.33207E-4,.137E-5,0
X-SAT,2011-015C,2026-07-12T20:24:36.318240,14.25213466,.0012703,98.3520,169.6529,268.5228,91.4498,0,U,37389,999,79133,.47148E-4,.7E-6,0
GCOM-W1 (SHIZUKU),2012-025A,2026-07-12T18:46:59.680416,14.57089065,.0001334,98.2024,133.9515,76.2561,339.7797,0,U,38337,999,75276,.61719E-4,.233E-5,0
NUSTAR,2012-031A,2026-07-12T22:00:01.998720,15.09033977,.0006847,6.0248,201.1184,138.0845,58.3919,0,U,38358,999,130,.63212E-4,.1885E-4,0
NEOSSAT,2013-009D,2026-07-12T12:08:08.988576,14.35834992,.00112718,98.4188,12.9376,164.9456,195.2068,0,U,39089,999,70037,.38029233E-4,.67E-6,0
BRITE-AUSTRIA,2013-009F,2026-07-12T11:48:01.125216,14.36551807,.00106113,98.4006,12.3025,158.3879,201.7757,0,U,39091,999,70068,.43656296E-4,.86E-6,0
IRIS,2013-033A,2026-07-12T13:14:58.244928,14.85933684,.0023181,97.9320,32.7491,234.1182,125.7881,0,U,39197,999,70414,.67113E-4,.532E-5,0
HISAKI (SPRINT-A),2013-049A,2026-07-12T19:57:54.249696,13.55546568,.0136951,29.7205,89.6278,224.7430,134.2023,0,U,39253,999,63490,.1573E-4,.79E-6,0
CASSIOPE,2013-055A,2026-07-12T19:03:16.167168,15.27316548,.0283419,80.9124,35.5676,336.0451,22.7800,0,U,39265,999,67157,.29362E-3,.27344E-3,-.4878E-6
STSAT-3,2013-066G,2026-07-12T21:07:48.331200,15.02877648,.0008938,97.6188,163.3541,314.8534,45.1964,0,U,39422,999,68806,.83568E-4,.1061E-4,0
SWARM B,2013-067A,2026-07-12T20:39:54.872064,15.28708496,.0002421,87.7456,334.5169,82.5835,277.5689,0,U,39451,999,68716,.77897E-4,.2209E-4,0
