HST                     
1 20580U 90037B   26193.50194392  .00003754  00000+0  11416-3 0  9992
2 20580  28.4726 267.5224 0002269  77.7190 282.3660 15.31043109792455
POLAR                   
1 23802U 96013A   26193.45479677  .00000231  00000+0  00000+0 0  9998
2 23802  79.8873 226.7522 6495795 208.2089  91.5098  1.29846074145181
SWAS                    
1 25560U 98071A   26193.85626610  .00001667  00000+0  10956-3 0  9991
2 25560  69.8937 161.3162 0008099 233.0826 126.9597 15.09738682501141
CXO                     
1 25867U 99040B   26195.82327180  .00000664  00000+0  00000+0 0  9998
2 25867  56.5906 115.8556 7794608 310.0752   0.4008  0.37803281 17429
XMM-NEWTON              
1 25989U 99066A   26193.28213418  .00000088  00000+0  00000+0 0  9997
2 25989  64.3559 282.6652 4668218  64.4827   0.1151  0.50124873 23131
TERRA                   
1 25994U 99068A   26193.83347969  .00000213  00000+0  52367-4 0  9993
2 25994  97.9443 242.3611 0003317 127.4066 284.6397 14.61122648413356
CLUSTER II-FM7 (SAMBA)  
1 26410U 00041A   26192.68021872  .00012833  00000+0  00000+0 0  9997
2 26410 149.8437  55.3938 9082311 272.8334 359.6328  0.44896530 20420
CLUSTER II-FM8 (TANGO)  
1 26464U 00045B   26190.95011118  .00011224  00000+0  00000+0 0  9993
2 26464 150.0571  56.2797 9085123 273.5523   2.2662  0.44421537 20419
ODIN                    
1 26702U 01007A   26193.66099177  .00297616  00000+0  10674-2 0  9991
2 26702  97.3743 236.4394 0004667 145.8846 214.2726 15.88033839393425
TIMED                   
1 26998U 01055B   26193.43164828  .00000618  00000+0  59647-4 0  9991
2 26998  74.0664 184.1868 0002150 303.7933  56.3046 14.95341094334593
CORIOLIS                
1 27640U 03001A   26193.63501289  .00000055  00000+0  46388-4 0  9990
2 27640  98.7133 200.1316 0014807 136.0642 224.1714 14.19951354217831
SORCE                   
1 27651U 03004A   26193.77417042  .00001543  00000+0  12075-3 0  9991
2 27651  39.9903 115.6776 0018682 238.2485 121.6489 15.03835204275754
MOST                    
1 27843U 03031D   26193.55408500  .00000024  00000+0  31060-4 0  9998
2 27843  98.7052 200.9262 0009920 172.5664 187.5662 14.21327361194312
SCISAT 1                
1 27858U 03036A   26193.81912387  .00000321  00000+0  45603-4 0  9999
2 27858  73.9302 120.4158 0007489 189.0096 171.0948 14.81477451235246
SWIFT                   
1 28485U 04047A   26193.86248922  .00050620  00000+0  37646-3 0  9995
2 28485  20.5531 346.4713 0001758 356.8973   3.1462 15.70976588190906
HINODE (SOLAR-B)        
1 29479U 06041A   26193.59829100  .00000324  00000+0  64077-4 0  9993
2 29479  98.0549 209.3763 0016823 202.9046 157.1411 14.68656280 58606
SHIJIAN-6 02A (SJ-6 02A)
1 29505U 06046A   26193.81502397  .00002083  00000+0  10822-3 0  9991
2 29505  97.6352 235.0763 0004506  68.8923 291.2791 15.17225591 76150
SHIJIAN-6 02B (SJ-6 02B)
1 29506U 06046B   26193.87160980  .00000509  00000+0  44106-4 0  9990
2 29506  97.7155 222.7712 0013672 344.3569  15.7230 15.01434697 74597
FGRST (GLAST)           
1 33053U 08029A   26193.82958418  .00002218  00000+0  75297-4 0  9995
2 33053  25.5828  26.4164 0007736 270.0308  89.9344 15.24068455999758
SDO                     
1 36395U 10005A   26192.24778596 -.00000102  00000+0  00000+0 0  9992
2 36395  34.6998  85.9778 0002020  56.2745 133.8056  1.00277272 60307
CRYOSAT 2               
1 36508U 10013A   26193.85765600  .00000137  00000+0  33207-4 0  9994
2 36508  92.0358 283.5423 0002353  98.3807 261.7667 14.51897879861803
X-SAT                   
1 37389U 11015C   26193.85042035  .00000070  00000+0  47148-4 0  9990
2 37389  98.3520 169.6529 0012703 268.5228  91.4498 14.25213466791335
GCOM-W1 (SHIZUKU)       
1 38337U 12025A   26193.78263519  .00000233  00000+0  61719-4 0  9991
2 38337  98.2024 133.9515 0001334  76.2561 339.7797 14.57089065752763
NUSTAR                  
1 38358U 12031A   26193.91668980  .00001885  00000+0  63212-4 0  9991
2 38358   6.0248 201.1184 0006847 138.0845  58.3919 15.09033977  1303
NEOSSAT                 
1 39089U 13009D   26193.50565959  .00000067  00000+0  38029-4 0  9995
2 39089  98.4188  12.9376 0011271 164.9456 195.2068 14.35834992700370
BRITE-AUSTRIA           
1 39091U 13009F   26193.49167969  .00000086  00000+0  43656-4 0  9998
2 39091  98.4006  12.3025 0010611 158.3879 201.7757 14.36551807700684
IRIS                    
1 39197U 13033A   26193.55206302  .00000532  00000+0  67113-4 0  9994
2 39197  97.9320  32.7491 0023181 234.1182 125.7881 14.85933684704142
HISAKI (SPRINT-A)       
1 39253U 13049A   26193.83187789  .00000079  00000+0  15730-4 0  9996
2 39253  29.7205  89.6278 0136951 224.7430 134.2023 13.55546568634901
CASSIOPE                
1 39265U 13055A   26193.79393712  .00027344 -48780-6  29362-3 0  9990
2 39265  80.9124  35.5676 0283419 336.0451  22.7800 15.27316548671579
STSAT-3                 
1 39422U 13066G   26193.88042050  .00001061  00000+0  83568-4 0  9995
2 39422  97.6188 163.3541 0008938 314.8534  45.1964 15.02877648688065
SWARM B                 
1 39451U 13067A   26193.86105176  .00002209  00000+0  77897-4 0  9998
2 39451  87.7456 334.5169 0002421  82.5835 277.5689 15.28708496687164
